CORVUS BC4              
1 43767U 18099K   26068.65923737  .00005714  00000+0  33980-3 0  9990
2 43767  97.4206 114.5457 0008046 356.5821   3.5354 15.11615710397368
STARLINK-4615           
1 53620U 22104AJ  26068.73168660  .00000160  00000+0  28121-4 0  9998
2 53620  53.2169 233.7698 0001223  96.1000 264.0131 15.08842231195754
